CZ-2D R/B               
1 28738U 05024B   25328.99748112  .00035110  00000+0  58305-3 0  9993
2 28738  97.3644 335.9960 0007951  57.8434 302.3589 15.51988672123504
ALOS (DAICHI)           
1 28931U 06002A   25329.12723889  .00001922  00000+0  33308-3 0  9995
2 28931  98.1070 280.7424 0000709  77.0658 283.0626 14.69406418 58122
H-2A R/B                
1 28932U 06002B   25328.94407797  .00012243  00000+0  65274-3 0  9997
2 28932  98.2312 102.2480 0054439 236.9721 122.6271 15.14051362 78579
RESURS-DK 1             
1 29228U 06021A   25328.90294927  .00003549  00000+0  21226-3 0  9990
2 29228  69.9307 147.9265 0007414 272.1860  87.8456 15.12007902 71682
CZ-4B R/B               
1 29507U 06046C   25329.07668317  .00006724  00000+0  35285-3 0  9992
2 29507  97.5754   9.2635 0032609 269.8113  89.9382 15.15613366 44191
CZ-2C R/B               
1 31114U 07010B   25328.89413233  .00000222  00000+0  12121-3 0  9996
2 31114  98.3970  82.4438 0058084 238.2910 121.2597 14.20198927964848
COSMO-SKYMED 1          
1 31598U 07023A   25329.19317178  .00005123  00000+0  46698-3 0  9992
2 31598  97.8842 154.4793 0001341  90.8821 269.2553 14.95573267999273
COSMOS 2428             
1 31792U 07029A   25328.68488721 -.00000115  00000+0 -35970-4 0  9990
2 31792  70.9371  63.7854 0002692  52.9217 307.2150 14.12886697949269
SL-16 R/B               
1 31793U 07029B   25329.13047426  .00000030  00000+0  40310-4 0  9993
2 31793  70.9778  32.1731 0002359 265.5580 116.8891 14.14817024950583
KORONAS-FOTON           
1 33504U 09003A   25329.09091991  .00015457  00000+0  37750-3 0  9992
2 33504  82.4323  24.3840 0011991 166.8792 193.2768 15.40631101929626
CZ-2C R/B               
1 37731U 11030B   25329.15120822  .00002260  00000+0  29327-3 0  9993
2 37731  97.8393 283.6506 0052330 332.2346  38.2391 14.80810882774620
H-2A R/B                
1 38341U 12025E   25328.89554329  .00005281  00000+0  48901-3 0  9994
2 38341  98.4580 282.7546 0043779 296.7018  62.9722 14.94272157732565
