CCSDS_OMM_VERS = 2.0
CREATION_DATE  = 
ORIGINATOR     = 

OBJECT_NAME    = CZ-2D R/B
OBJECT_ID      = 2005-024B
CENTER_NAME    = EARTH
REF_FRAME      = TEME
TIME_SYSTEM    = UTC
MEAN_ELEMENT_THEORY = SGP/SGP4

EPOCH          = 2025-11-24T23:56:22.368768
MEAN_MOTION    = 15.51988672
ECCENTRICITY   = .0007951
INCLINATION    = 97.3644
RA_OF_ASC_NODE = 335.9960
ARG_OF_PERICENTER = 57.8434
MEAN_ANOMALY   = 302.3589

EPHEMERIS_TYPE = 0
CLASSIFICATION_TYPE = U
NORAD_CAT_ID   = 28738
ELEMENT_SET_NO = 999
REV_AT_EPOCH   = 12350
BSTAR          = .58305E-3
MEAN_MOTION_DOT = .3511E-3
MEAN_MOTION_DDOT = 0

CCSDS_OMM_VERS = 2.0
CREATION_DATE  = 
ORIGINATOR     = 

OBJECT_NAME    = ALOS (DAICHI)
OBJECT_ID      = 2006-002A
CENTER_NAME    = EARTH
REF_FRAME      = TEME
TIME_SYSTEM    = UTC
MEAN_ELEMENT_THEORY = SGP/SGP4

EPOCH          = 2025-11-25T03:03:13.440096
MEAN_MOTION    = 14.69406418
ECCENTRICITY   = .0000709
INCLINATION    = 98.1070
RA_OF_ASC_NODE = 280.7424
ARG_OF_PERICENTER = 77.0658
MEAN_ANOMALY   = 283.0626

EPHEMERIS_TYPE = 0
CLASSIFICATION_TYPE = U
NORAD_CAT_ID   = 28931
ELEMENT_SET_NO = 999
REV_AT_EPOCH   = 5812
BSTAR          = .33308E-3
MEAN_MOTION_DOT = .1922E-4
MEAN_MOTION_DDOT = 0

CCSDS_OMM_VERS = 2.0
CREATION_DATE  = 
ORIGINATOR     = 

OBJECT_NAME    = H-2A R/B
OBJECT_ID      = 2006-002B
CENTER_NAME    = EARTH
REF_FRAME      = TEME
TIME_SYSTEM    = UTC
MEAN_ELEMENT_THEORY = SGP/SGP4

EPOCH          = 2025-11-24T22:39:28.336608
MEAN_MOTION    = 15.14051362
ECCENTRICITY   = .0054439
INCLINATION    = 98.2312
RA_OF_ASC_NODE = 102.2480
ARG_OF_PERICENTER = 236.9721
MEAN_ANOMALY   = 122.6271

EPHEMERIS_TYPE = 0
CLASSIFICATION_TYPE = U
NORAD_CAT_ID   = 28932
ELEMENT_SET_NO = 999
REV_AT_EPOCH   = 7857
BSTAR          = .65274E-3
MEAN_MOTION_DOT = .12243E-3
MEAN_MOTION_DDOT = 0

CCSDS_OMM_VERS = 2.0
CREATION_DATE  = 
ORIGINATOR     = 

OBJECT_NAME    = RESURS-DK 1
OBJECT_ID      = 2006-021A
CENTER_NAME    = EARTH
REF_FRAME      = TEME
TIME_SYSTEM    = UTC
MEAN_ELEMENT_THEORY = SGP/SGP4

EPOCH          = 2025-11-24T21:40:14.816928
MEAN_MOTION    = 15.12007902
ECCENTRICITY   = .0007414
INCLINATION    = 69.9307
RA_OF_ASC_NODE = 147.9265
ARG_OF_PERICENTER = 272.1860
MEAN_ANOMALY   = 87.8456

EPHEMERIS_TYPE = 0
CLASSIFICATION_TYPE = U
NORAD_CAT_ID   = 29228
ELEMENT_SET_NO = 999
REV_AT_EPOCH   = 7168
BSTAR          = .21226E-3
MEAN_MOTION_DOT = .3549E-4
MEAN_MOTION_DDOT = 0

CCSDS_OMM_VERS = 2.0
CREATION_DATE  = 
ORIGINATOR     = 

OBJECT_NAME    = CZ-4B R/B
OBJECT_ID      = 2006-046C
CENTER_NAME    = EARTH
REF_FRAME      = TEME
TIME_SYSTEM    = UTC
MEAN_ELEMENT_THEORY = SGP/SGP4

EPOCH          = 2025-11-25T01:50:25.425888
MEAN_MOTION    = 15.15613366
ECCENTRICITY   = .0032609
INCLINATION    = 97.5754
RA_OF_ASC_NODE = 9.2635
ARG_OF_PERICENTER = 269.8113
MEAN_ANOMALY   = 89.9382

EPHEMERIS_TYPE = 0
CLASSIFICATION_TYPE = U
NORAD_CAT_ID   = 29507
ELEMENT_SET_NO = 999
REV_AT_EPOCH   = 4419
BSTAR          = .35285E-3
MEAN_MOTION_DOT = .6724E-4
MEAN_MOTION_DDOT = 0

CCSDS_OMM_VERS = 2.0
CREATION_DATE  = 
ORIGINATOR     = 

OBJECT_NAME    = CZ-2C R/B
OBJECT_ID      = 2007-010B
CENTER_NAME    = EARTH
REF_FRAME      = TEME
TIME_SYSTEM    = UTC
MEAN_ELEMENT_THEORY = SGP/SGP4

EPOCH          = 2025-11-24T21:27:33.033312
MEAN_MOTION    = 14.20198927
ECCENTRICITY   = .0058084
INCLINATION    = 98.3970
RA_OF_ASC_NODE = 82.4438
ARG_OF_PERICENTER = 238.2910
MEAN_ANOMALY   = 121.2597

EPHEMERIS_TYPE = 0
CLASSIFICATION_TYPE = U
NORAD_CAT_ID   = 31114
ELEMENT_SET_NO = 999
REV_AT_EPOCH   = 96484
BSTAR          = .12121E-3
MEAN_MOTION_DOT = .222E-5
MEAN_MOTION_DDOT = 0

CCSDS_OMM_VERS = 2.0
CREATION_DATE  = 
ORIGINATOR     = 

OBJECT_NAME    = COSMO-SKYMED 1
OBJECT_ID      = 2007-023A
CENTER_NAME    = EARTH
REF_FRAME      = TEME
TIME_SYSTEM    = UTC
MEAN_ELEMENT_THEORY = SGP/SGP4

EPOCH          = 2025-11-25T04:38:10.041792
MEAN_MOTION    = 14.95573267
ECCENTRICITY   = .0001341
INCLINATION    = 97.8842
RA_OF_ASC_NODE = 154.4793
ARG_OF_PERICENTER = 90.8821
MEAN_ANOMALY   = 269.2553

EPHEMERIS_TYPE = 0
CLASSIFICATION_TYPE = U
NORAD_CAT_ID   = 31598
ELEMENT_SET_NO = 999
REV_AT_EPOCH   = 99927
BSTAR          = .46698E-3
MEAN_MOTION_DOT = .5123E-4
MEAN_MOTION_DDOT = 0

CCSDS_OMM_VERS = 2.0
CREATION_DATE  = 
ORIGINATOR     = 

OBJECT_NAME    = COSMOS 2428
OBJECT_ID      = 2007-029A
CENTER_NAME    = EARTH
REF_FRAME      = TEME
TIME_SYSTEM    = UTC
MEAN_ELEMENT_THEORY = SGP/SGP4

EPOCH          = 2025-11-24T16:26:14.254944
MEAN_MOTION    = 14.12886697
ECCENTRICITY   = .00026929
INCLINATION    = 70.9371
RA_OF_ASC_NODE = 63.7854
ARG_OF_PERICENTER = 52.9217
MEAN_ANOMALY   = 307.2150

EPHEMERIS_TYPE = 0
CLASSIFICATION_TYPE = U
NORAD_CAT_ID   = 31792
ELEMENT_SET_NO = 999
REV_AT_EPOCH   = 94926
BSTAR          = -.35969544E-4
MEAN_MOTION_DOT = -.115E-5
MEAN_MOTION_DDOT = 0

CCSDS_OMM_VERS = 2.0
CREATION_DATE  = 
ORIGINATOR     = 

OBJECT_NAME    = SL-16 R/B
OBJECT_ID      = 2007-029B
CENTER_NAME    = EARTH
REF_FRAME      = TEME
TIME_SYSTEM    = UTC
MEAN_ELEMENT_THEORY = SGP/SGP4

EPOCH          = 2025-11-25T03:07:52.976064
MEAN_MOTION    = 14.14817024
ECCENTRICITY   = .0002359
INCLINATION    = 70.9778
RA_OF_ASC_NODE = 32.1731
ARG_OF_PERICENTER = 265.5580
MEAN_ANOMALY   = 116.8891

EPHEMERIS_TYPE = 0
CLASSIFICATION_TYPE = U
NORAD_CAT_ID   = 31793
ELEMENT_SET_NO = 999
REV_AT_EPOCH   = 95058
BSTAR          = .4031E-4
MEAN_MOTION_DOT = .3E-6
MEAN_MOTION_DDOT = 0

CCSDS_OMM_VERS = 2.0
CREATION_DATE  = 
ORIGINATOR     = 

OBJECT_NAME    = KORONAS-FOTON
OBJECT_ID      = 2009-003A
CENTER_NAME    = EARTH
REF_FRAME      = TEME
TIME_SYSTEM    = UTC
MEAN_ELEMENT_THEORY = SGP/SGP4

EPOCH          = 2025-11-25T02:10:55.480224
MEAN_MOTION    = 15.40631101
ECCENTRICITY   = .0011991
INCLINATION    = 82.4323
RA_OF_ASC_NODE = 24.3840
ARG_OF_PERICENTER = 166.8792
MEAN_ANOMALY   = 193.2768

EPHEMERIS_TYPE = 0
CLASSIFICATION_TYPE = U
NORAD_CAT_ID   = 33504
ELEMENT_SET_NO = 999
REV_AT_EPOCH   = 92962
BSTAR          = .3775E-3
MEAN_MOTION_DOT = .15457E-3
MEAN_MOTION_DDOT = 0

CCSDS_OMM_VERS = 2.0
CREATION_DATE  = 
ORIGINATOR     = 

OBJECT_NAME    = CZ-2C R/B
OBJECT_ID      = 2011-030B
CENTER_NAME    = EARTH
REF_FRAME      = TEME
TIME_SYSTEM    = UTC
MEAN_ELEMENT_THEORY = SGP/SGP4

EPOCH          = 2025-11-25T03:37:44.390208
MEAN_MOTION    = 14.80810882
ECCENTRICITY   = .005233
INCLINATION    = 97.8393
RA_OF_ASC_NODE = 283.6506
ARG_OF_PERICENTER = 332.2346
MEAN_ANOMALY   = 38.2391

EPHEMERIS_TYPE = 0
CLASSIFICATION_TYPE = U
NORAD_CAT_ID   = 37731
ELEMENT_SET_NO = 999
REV_AT_EPOCH   = 77462
BSTAR          = .29327E-3
MEAN_MOTION_DOT = .226E-4
MEAN_MOTION_DDOT = 0

CCSDS_OMM_VERS = 2.0
CREATION_DATE  = 
ORIGINATOR     = 

OBJECT_NAME    = H-2A R/B
OBJECT_ID      = 2012-025E
CENTER_NAME    = EARTH
REF_FRAME      = TEME
TIME_SYSTEM    = UTC
MEAN_ELEMENT_THEORY = SGP/SGP4

EPOCH          = 2025-11-24T21:29:34.940256
MEAN_MOTION    = 14.94272157
ECCENTRICITY   = .0043779
INCLINATION    = 98.4580
RA_OF_ASC_NODE = 282.7546
ARG_OF_PERICENTER = 296.7018
MEAN_ANOMALY   = 62.9722

EPHEMERIS_TYPE = 0
CLASSIFICATION_TYPE = U
NORAD_CAT_ID   = 38341
ELEMENT_SET_NO = 999
REV_AT_EPOCH   = 73256
BSTAR          = .48901E-3
MEAN_MOTION_DOT = .5281E-4
MEAN_MOTION_DDOT = 0

